#dP2024  7 19  6  0  0.00000000      96 __u+U IGS20 EXT  IAC
## 2323 453600.00000000   900.00000000 60510 0.2500000000000
+   54   G02G03G04G05G06G07G08G09G10G11G12G13G14G15G16G17G18
+        G19G20G21G22G23G24G25G26G27G28G29G30G31G32R01R02R03
+        R04R05R07R08R09R11R12R13R14R15R16R17R18R19R20R21R22
+        R24R25R26  0  0  0  0  0  0  0  0  0  0  0  0  0  0
+          0  0  0  0  0  0  0  0  0  0  0  0  0  0  0  0  0
++         9  9  8  9  7  8  8  8  7  9  9  8  9  7  9  8  8
++         9  9  9  9  8  8  9  8  8  8 10  8  9  9  9  9  9
++         7  8  9  8  9  8  8  9  9  8  9  9  8  9  9  9  8
++         8  9  8  0  0  0  0  0  0  0  0  0  0  0  0  0  0
++         0  0  0  0  0  0  0  0  0  0  0  0  0  0  0  0  0
%c M  cc GPS ccc cccc cccc cccc cccc ccccc ccccc ccccc ccccc
%c cc cc ccc ccc cccc cccc cccc cccc ccccc ccccc ccccc ccccc
%f  0.0000000  0.000000000  0.00000000000  0.000000000000000
%f  0.0000000  0.000000000  0.00000000000  0.000000000000000
%i    0    0    0    0      0      0      0      0         0
%i    0    0    0    0      0      0      0      0         0
/* IAC                                ULTRA-RAPID PREDICTION
/* S/V CLOCKS ARE ALIGNED TO GNSS TIME                      
/* G:C1WC2W R:C1PC2P E:C1XC5X C:C2IC6I J:C1CC2S             
/* PCV:IGS20_2317 OL/AL:FES2004  NONE     YN ORB:CoN CLK:CoN
*  2024 07 20  4 30  0.00000000
PG02  -3421.772091 -14455.966271 -21544.819938   -395.622733
PG03 -11882.446429 -22821.016523  -7001.460077    465.618370
PG04  -1825.773986 -21711.603620  15110.279193    407.357460
PG05   -822.961530  18585.119790  18741.328140   -180.346331
PG06 -25982.751729   5134.638908   2725.979338    150.877410
PG07 -21226.075075  -7699.555982  14866.357079    -66.531292
PG08   5279.370738 -25310.530424  -5091.643204    281.773422
PG09 -11036.557328 -12133.168018  20793.724173    280.209628
PG10  18678.383764   4078.922398 -18371.468224    -70.742889
PG11 -18111.402366  12212.820856  15091.494790   -707.916180
PG12   8223.798005  23621.437995  -9283.004230   -523.690746
PG13 -13777.052548  22521.357578   1004.952936    665.684356
PG14 -19985.066882  -7596.970979 -15854.372726    452.928825
PG15  -1749.050974  25905.203608  -5613.160409    183.078122
PG16   6240.494154 -15862.552208  19914.030839   -231.796100
PG17 -16735.035480   3233.793037 -19997.315055    673.908138
PG18  21622.514310   6874.464723  13991.650499   -638.335937
PG19 -18156.383722  11228.971270 -15699.593638    512.928774
PG20  -9471.467460  12152.624412  21700.111077    372.577492
PG21   2168.690904 -15496.669789 -20872.299095    107.812646
PG22 -16675.138889    232.761305 -20186.559357    -41.664007
PG23  20279.009944  14501.090509  -9434.239884    277.893885
PG24   1551.758004  16020.942894 -21530.255087   -483.816776
PG25  16819.672869  20739.436243    -97.098920    498.675282
PG26  15846.432110  -5405.410676  20530.060313    116.704247
PG27  12663.236561 -22432.264476   5186.547512    -31.518039
PG28  26148.453445  -4662.935454     66.632471   -338.568840
PG29   7435.390390  15784.796794  19937.456951   -588.645597
PG30 -26222.474406   -107.593943   5190.204630   -354.769228
PG31  22073.988429 -10363.066009  10765.356199   -226.620341
PG32  16769.567025  -5560.576983 -19555.983626   -611.208574
PR01  -7537.274865 -19072.245206  15177.911056     91.925339
PR02 -10669.510310  -2507.603944  23072.378158    -23.791546
PR03  -8579.035711  16027.462183  17966.235170    104.063981
PR04  -2041.810724  25224.940170   3280.914643    246.008963
PR05   5590.598753  21103.018934 -13204.656253    134.774503
PR07   8359.410200 -16559.831457 -17445.201234     87.039595
PR08   1660.236312 -25265.236061  -2890.632162     -6.064073
PR09  22744.351545   7535.595032   8650.905824    198.677119
PR11  -1045.078824 -12723.039585  22101.860472     17.647587
PR12 -17952.204949 -15603.155128   9233.712677     42.664508
PR13 -22837.641645  -9582.894873  -6111.770755    -49.564826
PR14 -14046.674933   3711.353410 -20953.624311     26.719906
PR15   2560.995688  13481.811617 -21474.239717     77.683457
PR16  17931.044209  15481.105634  -9392.947694     27.529624
PR17 -21246.729840  13634.025190   3478.498861    106.173649
PR18 -10534.329988  14877.460291  17873.263364    152.834962
PR19   3753.685580   9746.615643  23266.575383   -284.518203
PR20  20745.606539  -3109.699355  14492.878662   -116.408840
PR21  21571.624287 -13309.261793  -3023.743960   -118.993218
PR22   9651.094794 -14708.185648 -18445.008863     85.337043
PR24 -20961.589267   4155.012507 -13898.100828    -64.446192
PR25  21659.114410 -12963.266895  -3767.212258    -97.306192
PR26   2184.589960 -25046.736166  -4361.292242      5.238128
*  2024 07 20  4 45  0.00000000
PG02   -943.778977 -15083.778915 -21341.416286   -395.616097
PG03 -11164.718871 -22209.880810  -9684.733256    465.633000
PG04  -1046.483227 -23127.596188  12909.613488    407.364405
PG05  -2434.274821  17003.768546  20051.312942   -180.347451
PG06 -26145.618985   4994.623210   -174.783755    150.856670
PG07 -19566.094996  -8152.812938  16802.521633    -66.524687
PG08   5698.824373 -25610.596082  -2268.881377    281.787782
PG09 -10202.845407 -14323.617309  19801.787804    280.223286
PG10  19899.103942   5695.530670 -16624.029818    -70.751831
PG11 -19720.735425  12231.551613  12890.282075   -707.922149
PG12   7365.271936  22803.014152 -11784.093922   -523.693482
PG13 -13846.385903  22138.914766   3879.451902    665.686573
PG14 -20887.304832  -9052.650716 -13820.378251    452.936843
PG15  -2154.544393  26266.723901  -2851.773448    183.082032
PG16   7710.619968 -13950.231255  20834.719450   -231.786567
PG17 -15840.976879    982.741278 -20908.184180    673.900954
PG18  19957.637495   7284.933585  16083.479171   -638.339406
PG19 -17483.378994   9455.734344 -17577.262090    512.933610
PG20 -11358.316078  10562.866170  21612.850403    372.577141
PG21   4563.313799 -16022.816216 -19996.801486    107.810589
PG22 -17906.834357  -1753.773188 -19021.369953    -41.668005
PG23  20762.623564  15305.076664  -6754.559105    277.901879
PG24   -741.781794  16596.475442 -21087.870729   -483.818086
PG25  16531.190324  20811.960336  -2908.833944    498.675612
PG26  17420.543006  -3681.166817  19657.204942    116.697959
PG27  12659.339139 -21591.626418   7933.119399    -31.518805
PG28  26049.724540  -4382.440015  -2784.219343   -338.582988
PG29   6420.876294  17756.395691  18577.820862   -588.643869
PG30 -25558.449156   -520.014974   7846.237739   -354.763312
PG31  23200.482838 -10309.928685   8232.545696   -226.620052
PG32  16089.513348  -3312.974700 -20615.286080   -611.206657
PR01  -7743.542467 -20779.028569  12619.257948     91.926439
PR02 -10728.405520  -5314.102146  22557.408433    -23.791699
PR03  -8532.358695  13705.275606  19814.366209    104.064555
PR04  -1870.717087  24626.594273   6435.684636    246.010407
PR05   5761.153148  22561.744057 -10432.063031    134.774988
PR07   8311.798933 -14275.585868 -19379.475857     87.040529
PR08   1513.077147 -24702.008221  -6051.790287     -6.064429
PR09  23564.794940   7860.108042   5621.814784    198.679096
PR11   1381.888042 -11395.214659  22795.670003     17.646535
PR12 -16854.840111 -14878.155818  12072.381180     42.665067
PR13 -23391.599325  -9731.482429  -2972.172555    -49.565233
PR14 -16278.033952   2592.181309 -19457.166106     26.719965
PR15    192.332319  12159.745508 -22395.358553     77.682982
PR16  16812.902987  14734.159484 -12231.922970     27.529989
PR17 -21348.212036  13912.694858    253.612404    106.176706
PR18 -12246.619941  16043.653378  15635.077015    152.836723
PR19   1255.453373  11129.252398  22911.662199   -284.519437
PR20  18961.736099  -2330.077841  16888.291816   -116.409265
PR21  21617.773838 -13573.041896    205.445906   -118.996046
PR22  11489.357051 -15830.729066 -16345.003785     85.331039
PR24 -19300.960391   3291.599518 -16323.068199    -64.447519
PR25  21822.544666 -13222.437105   -571.054751    -97.307815
PR26   2043.079632 -24310.051515  -7472.572172      5.239933
EOF
